[{"OBJECT_NAME":"STARLINK-1154","OBJECT_ID":"2020-012W","EPOCH":"2026-03-09T02:30:04.608000","MEAN_MOTION":15.45952497,"ECCENTRICITY":0.00072447,"INCLINATION":53.0499,"RA_OF_ASC_NODE":12.8007,"ARG_OF_PERICENTER":86.205,"MEAN_ANOMALY":273.9784,"EPHEMERIS_TYPE":0,"CLASSIFICATION_TYPE":"U","NORAD_CAT_ID":45198,"ELEMENT_SET_NO":999,"REV_AT_EPOCH":33520,"BSTAR":0.0019057073,"MEAN_MOTION_DOT":0.00095128,"MEAN_MOTION_DDOT":0},{"OBJECT_NAME":"COSMOS 2561","OBJECT_ID":"2022-137A","EPOCH":"2026-03-09T19:59:13.468128","MEAN_MOTION":15.49066239,"ECCENTRICITY":0.0010723,"INCLINATION":96.9316,"RA_OF_ASC_NODE":131.6532,"ARG_OF_PERICENTER":40.6678,"MEAN_ANOMALY":319.5373,"EPHEMERIS_TYPE":0,"CLASSIFICATION_TYPE":"U","NORAD_CAT_ID":54109,"ELEMENT_SET_NO":999,"REV_AT_EPOCH":19095,"BSTAR":0.00030274,"MEAN_MOTION_DOT":0.0001638,"MEAN_MOTION_DDOT":0}]
