STARLINK-1154           
1 45198U 20012W   26068.10422000  .00095128  00000+0  19057-2 0  9991
2 45198  53.0499  12.8007 0007244  86.2050 273.9784 15.45952497335209
COSMOS 2561             
1 54109U 22137A   26068.83279477  .00016380  00000+0  30274-3 0  9999
2 54109  96.9316 131.6532 0010723  40.6678 319.5373 15.49066239190950
